start=new Date('2021-11-14T00:00:00.000Z').valueOf();
sats=[{"APOAPSIS":"548.162","INCLINATION":"53.0577","NORAD_CAT_ID":"48658","MEAN_MOTION_DDOT":"0.0000000000000","BSTAR":"0.00000206620000","REV_AT_EPOCH":"2604","GP_ID":"189713851","TLE_LINE2":"2 48658  53.0577   0.2854 0001356  76.4831 283.6309 15.06397011 26049","PERIOD":"95.592","ARG_OF_PERICENTER":"76.4831","ELEMENT_SET_NO":"999","OBJECT_TYPE":"PAYLOAD","MEAN_MOTION_DOT":"-0.00000251","SITE":"AFETR","FILE":"3214514","REF_FRAME":"TEME","RA_OF_ASC_NODE":"0.2854","ECCENTRICITY":"0.00013560","TLE_LINE1":"1 48658U 21044W   21317.86058111 -.00000251  00000-0  20662-5 0  9996","CLASSIFICATION_TYPE":"U","MEAN_ANOMALY":"283.6309","EPOCH":"2021-11-13T20:39:14.207904","PERIAPSIS":"546.284","OBJECT_NAME":"STARLINK-2647","RCS_SIZE":"LARGE","SEMIMAJOR_AXIS":"6925.358","LAUNCH_DATE":"2021-05-26","OBJECT_ID":"2021-044W","COUNTRY_CODE":"US","MEAN_MOTION":"15.06397011","EPHEMERIS_TYPE":"0","MEAN_ELEMENT_THEORY":"SGP4","CENTER_NAME":"EARTH","DECAY_DATE":null,"TIME_SYSTEM":"UTC"},{"RA_OF_ASC_NODE":"0.2950","ECCENTRICITY":"0.00017760","SITE":"AFETR","FILE":"3214514","REF_FRAME":"TEME","TLE_LINE2":"2 48659  53.0561   0.2950 0001776  75.5162 284.6024 15.06425484 26044","PERIOD":"95.591","ELEMENT_SET_NO":"999","ARG_OF_PERICENTER":"75.5162","MEAN_MOTION_DOT":"0.00007265","OBJECT_TYPE":"PAYLOAD","GP_ID":"189713617","BSTAR":"0.00050576000000","REV_AT_EPOCH":"2604","APOAPSIS":"548.365","INCLINATION":"53.0561","NORAD_CAT_ID":"48659","MEAN_MOTION_DDOT":"0.0000000000000","CENTER_NAME":"EARTH","DECAY_DATE":null,"TIME_SYSTEM":"UTC","OBJECT_ID":"2021-044X","COUNTRY_CODE":"US","EPHEMERIS_TYPE":"0","MEAN_MOTION":"15.06425484","MEAN_ELEMENT_THEORY":"SGP4","LAUNCH_DATE":"2021-05-26","OBJECT_NAME":"STARLINK-2717","SEMIMAJOR_AXIS":"6925.270","RCS_SIZE":"LARGE","PERIAPSIS":"545.906","EPOCH":"2021-11-13T20:33:56.241216","TLE_LINE1":"1 48659U 21044X   21317.85690094  .00007265  00000-0  50576-3 0  9994","CLASSIFICATION_TYPE":"U","MEAN_ANOMALY":"284.6024"},{"MEAN_ANOMALY":"290.7873","CLASSIFICATION_TYPE":"U","TLE_LINE1":"1 48660U 21044Y   21317.85319907  .00001246  00000-0  10256-3 0  9991","EPOCH":"2021-11-13T20:28:36.399648","PERIAPSIS":"546.134","RCS_SIZE":"LARGE","SEMIMAJOR_AXIS":"6925.346","OBJECT_NAME":"STARLINK-2688","LAUNCH_DATE":"2021-05-26","MEAN_ELEMENT_THEORY":"SGP4","MEAN_MOTION":"15.06400876","COUNTRY_CODE":"US","EPHEMERIS_TYPE":"0","OBJECT_ID":"2021-044Y","TIME_SYSTEM":"UTC","DECAY_DATE":null,"CENTER_NAME":"EARTH","MEAN_MOTION_DDOT":"0.0000000000000","APOAPSIS":"548.288","INCLINATION":"53.0567","NORAD_CAT_ID":"48660","REV_AT_EPOCH":"2604","BSTAR":"0.00010256000000","GP_ID":"189713969","OBJECT_TYPE":"PAYLOAD","MEAN_MOTION_DOT":"0.00001246","ELEMENT_SET_NO":"999","ARG_OF_PERICENTER":"69.3283","PERIOD":"95.592","TLE_LINE2":"2 48660  53.0567   0.3067 0001555  69.3283 290.7873 15.06400876 26040","REF_FRAME":"TEME","SITE":"AFETR","FILE":"3214514","ECCENTRICITY":"0.00015550","RA_OF_ASC_NODE":"0.3067"},{"APOAPSIS":"548.211","NORAD_CAT_ID":"48661","INCLINATION":"53.0558","MEAN_MOTION_DDOT":"0.0000000000000","BSTAR":"0.00000654840000","REV_AT_EPOCH":"2617","GP_ID":"189713383","TLE_LINE2":"2 48661  53.0558 350.5911 0001384  71.7969 288.3171 15.06387186 26173","PERIOD":"95.593","ELEMENT_SET_NO":"999","ARG_OF_PERICENTER":"71.7969","OBJECT_TYPE":"PAYLOAD","MEAN_MOTION_DOT":"-0.00000184","SITE":"AFETR","FILE":"3214514","REF_FRAME":"TEME","ECCENTRICITY":"0.00013840","RA_OF_ASC_NODE":"350.5911","TLE_LINE1":"1 48661U 21044Z   21317.78778726 -.00000184  00000-0  65484-5 0  9998","CLASSIFICATION_TYPE":"U","MEAN_ANOMALY":"288.3171","EPOCH":"2021-11-13T18:54:24.819264","PERIAPSIS":"546.294","OBJECT_NAME":"STARLINK-2708","SEMIMAJOR_AXIS":"6925.388","RCS_SIZE":"LARGE","LAUNCH_DATE":"2021-05-26","OBJECT_ID":"2021-044Z","COUNTRY_CODE":"US","EPHEMERIS_TYPE":"0","MEAN_MOTION":"15.06387186","MEAN_ELEMENT_THEORY":"SGP4","CENTER_NAME":"EARTH","DECAY_DATE":null,"TIME_SYSTEM":"UTC"},{"PERIOD":"95.593","TLE_LINE2":"2 48662  53.0576 350.0184 0001347  75.6491 284.4648 15.06393356 26197","ARG_OF_PERICENTER":"75.6491","ELEMENT_SET_NO":"999","MEAN_MOTION_DOT":"-0.00000483","OBJECT_TYPE":"PAYLOAD","GP_ID":"189713500","ECCENTRICITY":"0.00013470","RA_OF_ASC_NODE":"350.0184","FILE":"3214514","SITE":"AFETR","REF_FRAME":"TEME","BSTAR":"-0.00001350600000","REV_AT_EPOCH":"2619","APOAPSIS":"548.167","NORAD_CAT_ID":"48662","INCLINATION":"53.0576","MEAN_MOTION_DDOT":"0.0000000000000","LAUNCH_DATE":"2021-05-26","OBJECT_NAME":"STARLINK-2726","RCS_SIZE":"LARGE","SEMIMAJOR_AXIS":"6925.369","CENTER_NAME":"EARTH","DECAY_DATE":null,"TIME_SYSTEM":"UTC","OBJECT_ID":"2021-044AA","EPHEMERIS_TYPE":"0","COUNTRY_CODE":"US","MEAN_MOTION":"15.06393356","MEAN_ELEMENT_THEORY":"SGP4","EPOCH":"2021-11-13T22:00:11.166624","TLE_LINE1":"1 48662U 21044AA  21317.91679591 -.00000483  00000-0 -13506-4 0  9994","CLASSIFICATION_TYPE":"U","MEAN_ANOMALY":"284.4648","PERIAPSIS":"546.301"},{"CLASSIFICATION_TYPE":"U","TLE_LINE1":"1 48663U 21044AB  21317.58137479 -.00000352  00000-0 -47517-5 0  9997","MEAN_ANOMALY":"290.0631","EPOCH":"2021-11-13T13:57:10.781856","PERIAPSIS":"546.373","OBJECT_NAME":"STARLINK-2667","SEMIMAJOR_AXIS":"6925.361","RCS_SIZE":"LARGE","LAUNCH_DATE":"2021-05-26","OBJECT_ID":"2021-044AB","MEAN_ELEMENT_THEORY":"SGP4","MEAN_MOTION":"15.06395984","COUNTRY_CODE":"US","EPHEMERIS_TYPE":"0","DECAY_DATE":null,"CENTER_NAME":"EARTH","TIME_SYSTEM":"UTC","APOAPSIS":"548.079","INCLINATION":"53.0565","NORAD_CAT_ID":"48663","MEAN_MOTION_DDOT":"0.0000000000000","BSTAR":"-0.00000475170000","REV_AT_EPOCH":"2614","GP_ID":"189713266","ELEMENT_SET_NO":"999","ARG_OF_PERICENTER":"70.0490","TLE_LINE2":"2 48663  53.0565 351.5185 0001232  70.0490 290.0631 15.06395984 26143","PERIOD":"95.592","OBJECT_TYPE":"PAYLOAD","MEAN_MOTION_DOT":"-0.00000352","REF_FRAME":"TEME","SITE":"AFETR","FILE":"3214514","ECCENTRICITY":"0.00012320","RA_OF_ASC_NODE":"351.5185"},{"REV_AT_EPOCH":"2703","BSTAR":"0.00013483000000","MEAN_MOTION_DDOT":"0.0000000000000","APOAPSIS":"548.146","INCLINATION":"53.0572","NORAD_CAT_ID":"48664","RA_OF_ASC_NODE":"351.8391","ECCENTRICITY":"0.00013500","SITE":"AFETR","FILE":"3214139","REF_FRAME":"TEME","MEAN_MOTION_DOT":"0.00001727","OBJECT_TYPE":"PAYLOAD","PERIOD":"95.592","TLE_LINE2":"2 48664  53.0572 351.8391 0001350  71.0196 289.0939 15.06400923 27037","ARG_OF_PERICENTER":"71.0196","ELEMENT_SET_NO":"999","GP_ID":"189681479","PERIAPSIS":"546.276","EPOCH":"2021-11-13T12:16:18.594912","MEAN_ANOMALY":"289.0939","TLE_LINE1":"1 48664U 21044AC  21317.51132633  .00001727  00000-0  13483-3 0  9996","CLASSIFICATION_TYPE":"U","TIME_SYSTEM":"UTC","CENTER_NAME":"EARTH","DECAY_DATE":null,"COUNTRY_CODE":"US","EPHEMERIS_TYPE":"0","MEAN_MOTION":"15.06400923","MEAN_ELEMENT_THEORY":"SGP4","OBJECT_ID":"2021-044AC","LAUNCH_DATE":"2021-05-26","RCS_SIZE":"LARGE","SEMIMAJOR_AXIS":"6925.346","OBJECT_NAME":"STARLINK-2709"},{"MEAN_MOTION_DDOT":"0.0000000000000","APOAPSIS":"548.126","INCLINATION":"53.0571","NORAD_CAT_ID":"48665","REV_AT_EPOCH":"2614","BSTAR":"0.00000854750000","SITE":"AFETR","FILE":"3214514","REF_FRAME":"TEME","RA_OF_ASC_NODE":"351.4786","ECCENTRICITY":"0.00012820","GP_ID":"189713734","OBJECT_TYPE":"PAYLOAD","MEAN_MOTION_DOT":"-0.00000154","TLE_LINE2":"2 48665  53.0571 351.4786 0001282  80.0622 280.0512 15.06391831 26145","PERIOD":"95.593","ARG_OF_PERICENTER":"80.0622","ELEMENT_SET_NO":"999","PERIAPSIS":"546.351","MEAN_ANOMALY":"280.0512","TLE_LINE1":"1 48665U 21044AD  21317.59148468 -.00000154  00000-0  85475-5 0  9994","CLASSIFICATION_TYPE":"U","EPOCH":"2021-11-13T14:11:44.276352","COUNTRY_CODE":"US","MEAN_MOTION":"15.06391831","EPHEMERIS_TYPE":"0","MEAN_ELEMENT_THEORY":"SGP4","OBJECT_ID":"2021-044AD","TIME_SYSTEM":"UTC","CENTER_NAME":"EARTH","DECAY_DATE":null,"SEMIMAJOR_AXIS":"6925.374","RCS_SIZE":"LARGE","OBJECT_NAME":"STARLINK-2653","LAUNCH_DATE":"2021-05-26"},{"MEAN_ELEMENT_THEORY":"SGP4","EPHEMERIS_TYPE":"0","COUNTRY_CODE":"US","MEAN_MOTION":"15.06407512","OBJECT_ID":"2021-044AE","TIME_SYSTEM":"UTC","DECAY_DATE":null,"CENTER_NAME":"EARTH","SEMIMAJOR_AXIS":"6925.326","RCS_SIZE":"LARGE","OBJECT_NAME":"STARLINK-2666","LAUNCH_DATE":"2021-05-26","PERIAPSIS":"546.319","MEAN_ANOMALY":"283.3336","CLASSIFICATION_TYPE":"U","TLE_LINE1":"1 48666U 21044AE  21317.82368691  .00003747  00000-0  27025-3 0  9998","EPOCH":"2021-11-13T19:46:06.549024","REF_FRAME":"TEME","SITE":"AFETR","FILE":"3214514","RA_OF_ASC_NODE":"350.4352","ECCENTRICITY":"0.00012580","GP_ID":"189713852","MEAN_MOTION_DOT":"0.00003747","OBJECT_TYPE":"PAYLOAD","ARG_OF_PERICENTER":"76.7794","ELEMENT_SET_NO":"999","PERIOD":"95.592","TLE_LINE2":"2 48666  53.0552 350.4352 0001258  76.7794 283.3336 15.06407512 26175","MEAN_MOTION_DDOT":"0.0000000000000","INCLINATION":"53.0552","APOAPSIS":"548.062","NORAD_CAT_ID":"48666","REV_AT_EPOCH":"2617","BSTAR":"0.00027025000000"},{"MEAN_MOTION_DOT":"0.00002123","OBJECT_TYPE":"PAYLOAD","PERIOD":"95.592","TLE_LINE2":"2 48667  53.0565 351.5508 0001273  79.3817 280.7315 15.06397469 26141","ELEMENT_SET_NO":"999","ARG_OF_PERICENTER":"79.3817","GP_ID":"189680560","RA_OF_ASC_NODE":"351.5508","ECCENTRICITY":"0.00012730","FILE":"3214083","SITE":"AFETR","REF_FRAME":"TEME","REV_AT_EPOCH":"2614","BSTAR":"0.00016138000000","MEAN_MOTION_DDOT":"0.0000000000000","APOAPSIS":"548.103","INCLINATION":"53.0565","NORAD_CAT_ID":"48667","LAUNCH_DATE":"2021-05-26","SEMIMAJOR_AXIS":"6925.356","RCS_SIZE":"LARGE","OBJECT_NAME":"STARLINK-2735","TIME_SYSTEM":"UTC","CENTER_NAME":"EARTH","DECAY_DATE":null,"COUNTRY_CODE":"US","MEAN_MOTION":"15.06397469","EPHEMERIS_TYPE":"0","MEAN_ELEMENT_THEORY":"SGP4","OBJECT_ID":"2021-044AF","EPOCH":"2021-11-13T13:46:33.012480","MEAN_ANOMALY":"280.7315","TLE_LINE1":"1 48667U 21044AF  21317.57399320  .00002123  00000-0  16138-3 0  9994","CLASSIFICATION_TYPE":"U","PERIAPSIS":"546.340"}];
